NORAD_CAT_ID,OBJECT_NAME,OBJECT_TYPE,EPOCH,MEAN_MOTION,ECCENTRICITY,INCLINATION,RA_OF_ASC_NODE,ARG_OF_PERICENTER,MEAN_ANOMALY,BSTAR,MEAN_MOTION_DOT,MEAN_MOTION_DDOT,TLE_LINE0,TLE_LINE1,TLE_LINE2,SEMIMAJOR_AXIS,PERIOD,APOGEE,PERIGEE,DECAYED
53146.0,STARLINK-4099,PAYLOAD,2022-08-19 14:00:01,15.49894989,0.0001252999999999,53.2159,244.4878,71.467,57.5044,0.00027836,0.00015383,0.0,0 STARLINK-4099,1 53146U 22083Q   22231.58334491  .00015383  00000-0  27836-3 0  9990,2 53146  53.2159 244.4878 0001253  71.4670  57.5044 15.49894989  5836,6795.17,92.91,417.886,416.184,0.0
53146.0,STARLINK-4099,PAYLOAD,2022-08-19 22:00:00,15.49886003,0.0001165999999999,53.2157,242.8931,83.6463,106.2656,0.0010197,0.00057853,0.0,0 STARLINK-4099,1 53146U 22083Q   22231.91667824  .00057853  00000-0  10197-2 0  9995,2 53146  53.2157 242.8931 0001166  83.6463 106.2656 15.49886003  1301,6795.196,92.91,417.854,416.269,0.0
53146.0,STARLINK-4099,PAYLOAD,2022-08-20 14:00:01,15.49926308,0.0001223,53.215,239.7088,72.6972,239.0869,-6.5542999999999975e-06,-8.24e-06,0.0,0 STARLINK-4099,1 53146U 22083Q   22232.58334491 -.00000824  00000-0 -65543-5 0  9996,2 53146  53.2150 239.7088 0001223  72.6972 239.0869 15.49926308  1303,6795.078,92.908,417.774,416.112,0.0
53146.0,STARLINK-4099,PAYLOAD,2022-08-20 22:00:00,15.49923057,0.0001125999999999,53.2159,238.116,85.6512,287.0963,0.00016941,9.188e-05,0.0,0 STARLINK-4099,1 53146U 22083Q   22232.91667824  .00009188  00000-0  16941-3 0  9998,2 53146  53.2159 238.1160 0001126  85.6512 287.0963 15.49923057  1308,6795.0880000000025,92.908,417.718,416.18800000000016,0.0
53146.0,STARLINK-4099,PAYLOAD,2022-08-21 04:00:00,15.50097237,9.56e-05,53.2169,236.9241,86.8606,241.5776,-0.0119239999999999,-0.00630025,0.0,0 STARLINK-4099,1 53146U 22083Q   22233.16667824 -.00630025  00000-0 -11924-1 0  9992,2 53146  53.2169 236.9241 0000956  86.8606 241.5776 15.50097237  6072,6794.579000000002,92.897,417.093,415.794,0.0
53146.0,STARLINK-4099,PAYLOAD,2022-08-21 14:00:01,15.495336300000002,0.0001203,53.2172,234.9373,86.7844,47.6908,-0.022029,-0.01115182,0.0,0 STARLINK-4099,1 53146U 22083Q   22233.58334491 -.01115182  00000-0 -22029-1 0  9990,2 53146  53.2172 234.9373 0001203  86.7844  47.6908 15.49533630  1302,6796.226,92.931,418.909,417.274,0.0
53146.0,STARLINK-4099,PAYLOAD,2022-08-21 22:00:00,15.48730581,0.0001281,53.2172,233.3451,81.0534,113.4219,-0.022675,-0.01115644,0.0,0 STARLINK-4099,1 53146U 22083Q   22233.91667824 -.01115644  00000-0 -22675-1 0  9996,2 53146  53.2172 233.3451 0001281  81.0534 113.4219 15.48730581  1302,6798.576,92.979,421.311,419.57,0.0
53146.0,STARLINK-4099,PAYLOAD,2022-08-22 04:00:00,15.48126454,0.0001375999999999,53.2174,232.1546,65.3365,83.5047,-0.023072,-0.01111694,0.0,0 STARLINK-4099,1 53146U 22083Q   22234.16667824 -.01111694  00000-0 -23072-1 0  9997,2 53146  53.2174 232.1546 0001376  65.3365  83.5047 15.48126454  6239,6800.344,93.016,423.145,421.273,0.0
53146.0,STARLINK-4099,PAYLOAD,2022-08-22 12:00:00,15.47323396,0.000126,53.2172,230.5686,81.9513,125.1997,-0.023711,-0.01126995,0.0,0 STARLINK-4099,1 53146U 22083Q   22234.50001157 -.01126995  00000-0 -23711-1 0  9996,2 53146  53.2172 230.5686 0001260  81.9513 125.1997 15.47323396  1308,6802.696999999999,93.064,425.419,423.705,0.0
53146.0,STARLINK-4099,PAYLOAD,2022-08-22 20:00:01,15.46519751,0.0001187,53.2174,228.9814,88.3058,176.1923,-0.024358,-0.01125858,0.0,0 STARLINK-4099,1 53146U 22083Q   22234.83334491 -.01125858  00000-0 -24358-1 0  9997,2 53146  53.2174 228.9814 0001187  88.3058 176.1923 15.46519751  6331,6805.053000000001,93.112,427.726,426.11,0.0
53146.0,STARLINK-4099,PAYLOAD,2022-08-22 22:00:00,15.46319001,0.0001064,53.2173,228.5851,83.9715,284.7125,-0.0245449999999999,-0.01126528,0.0,0 STARLINK-4099,1 53146U 22083Q   22234.91667824 -.01126528  00000-0 -24545-1 0  9998,2 53146  53.2173 228.5851 0001064  83.9715 284.7125 15.46319001  1300,6805.642,93.124,428.231,426.783,0.0
53146.0,STARLINK-4099,PAYLOAD,2022-08-23 12:00:00,15.449148,0.0001017,53.2172,225.8185,83.2854,293.008,-0.025756,-0.01126188,0.0,0 STARLINK-4099,1 53146U 22083Q   22235.50001157 -.01126188  00000-0 -25756-1 0  9992,2 53146  53.2172 225.8185 0001017  83.2854 293.0080 15.44914800  6432,6809.765,93.209,432.323,430.93800000000016,0.0
53146.0,STARLINK-4099,PAYLOAD,2022-08-23 14:00:01,15.4471536,0.0001205,53.2173,225.4228,80.7184,39.2784,-0.025999,-0.01128863,0.0,0 STARLINK-4099,1 53146U 22083Q   22235.58334491 -.01128863  00000-0 -25999-1 0  9991,2 53146  53.2173 225.4228 0001205  80.7184  39.2784 15.44715360  1306,6810.352,93.221,433.037,431.396,0.0
53146.0,STARLINK-4099,PAYLOAD,2022-08-23 22:00:01,15.43912656,0.0001338,53.2175,223.8425,73.1798,101.0921,-0.026741,-0.0112959999999999,0.0,0 STARLINK-4099,1 53146U 22083Q   22235.91668981 -.01129600  00000-0 -26741-1 0  9998,2 53146  53.2175 223.8425 0001338  73.1798 101.0921 15.43912656  1300,6812.712,93.27,435.48800000000006,433.665,0.0
53146.0,STARLINK-4099,PAYLOAD,2022-08-24 04:00:00,15.43308754,0.0001389,53.2175,222.661,59.3086,64.9231,-0.027216,-0.01126561,0.0,0 STARLINK-4099,1 53146U 22083Q   22236.16667824 -.01126561  00000-0 -27216-1 0  9992,2 53146  53.2175 222.6610 0001389  59.3086  64.9231 15.43308754  6545,6814.489000000001,93.306,437.301,435.407,0.0
53146.0,STARLINK-4099,PAYLOAD,2022-08-24 14:00:01,15.42307858,0.0001197,53.2172,220.6916,89.2744,190.4578,-0.028279,-0.01131097,0.0,0 STARLINK-4099,1 53146U 22083Q   22236.58334491 -.01131097  00000-0 -28279-1 0  9999,2 53146  53.2172 220.6916 0001197  89.2744 190.4578 15.42307858  1300,6817.437,93.367,440.11800000000005,438.486,0.0
53146.0,STARLINK-4099,PAYLOAD,2022-08-24 20:00:01,15.41701809,0.0001315,53.2172,219.5102,71.0832,157.2283,-0.028682,-0.01124663,0.0,0 STARLINK-4099,1 53146U 22083Q   22236.83334491 -.01124663  00000-0 -28682-1 0  9996,2 53146  53.2172 219.5102 0001315  71.0832 157.2283 15.41701809  6642,6819.223000000001,93.403,441.985,440.192,0.0
53146.0,STARLINK-4099,PAYLOAD,2022-08-24 22:00:00,15.41501257,0.0001167,53.2175,219.1172,71.03399999999998,260.0154,-0.028869,-0.01124385,0.0,0 STARLINK-4099,1 53146U 22083Q   22236.91667824 -.01124385  00000-0 -28869-1 0  9992,2 53146  53.2175 219.1172 0001167  71.0340 260.0154 15.41501257  1300,6819.815,93.415,442.476,440.884,0.0
53146.0,STARLINK-4099,PAYLOAD,2022-08-25 12:00:00,15.40099392,0.000111,53.2171,216.3703,76.4536,252.0742,-0.0303829999999999,-0.01128815,0.0,0 STARLINK-4099,1 53146U 22083Q   22237.50001157 -.01128815  00000-0 -30383-1 0  9995,2 53146  53.2171 216.3703 0001110  76.4536 252.0742 15.40099392  6747,6823.953,93.5,446.575,445.06,0.0
53146.0,STARLINK-4099,PAYLOAD,2022-08-25 14:00:01,15.398973300000002,0.0001179,53.2172,215.9777,69.7067,1.0782,-0.030536,-0.01127088,0.0,0 STARLINK-4099,1 53146U 22083Q   22237.58334491 -.01127088  00000-0 -30536-1 0  9994,2 53146  53.2172 215.9777 0001179  69.7067   1.0782 15.39897330  1302,6824.55,93.513,447.219,445.61,0.0
53146.0,STARLINK-4099,PAYLOAD,2022-08-25 22:00:00,15.39093983,0.0001296,53.2175,214.409,73.1208,46.0857,-0.03132,-0.01125837,0.0,0 STARLINK-4099,1 53146U 22083Q   22237.91667824 -.01125837  00000-0 -31320-1 0  9992,2 53146  53.2175 214.4090 0001296  73.1208  46.0857 15.39093983  1307,6826.924,93.562,449.674,447.904,0.0
53146.0,STARLINK-4099,PAYLOAD,2022-08-26 06:00:00,15.38291402,0.0001395,53.2173,212.8454,73.5165,93.1452,-0.032175,-0.01126387,0.0,0 STARLINK-4099,1 53146U 22083Q   22238.25001157 -.01126387  00000-0 -32175-1 0  9991,2 53146  53.2173 212.8454 0001395  73.5165  93.1452 15.38291402  6862,6829.299,93.61,452.116,450.211,0.0
53146.0,STARLINK-4099,PAYLOAD,2022-08-26 14:00:01,15.37489444,0.0001313,53.2173,211.2808,86.4407,126.777,-0.033091,-0.01128235,0.0,0 STARLINK-4099,1 53146U 22083Q   22238.58335648 -.01128235  00000-0 -33091-1 0  9994,2 53146  53.2173 211.2808 0001313  86.4407 126.7770 15.37489444  1304,6831.6730000000025,93.659,454.435,452.641,0.0
53146.0,STARLINK-4099,PAYLOAD,2022-08-26 22:00:00,15.36684532,0.0001294,53.2173,209.7179,85.1197,173.5613,-0.0338199999999999,-0.01123667,0.0,0 STARLINK-4099,1 53146U 22083Q   22238.91667824 -.01123667  00000-0 -33820-1 0  9999,2 53146  53.2173 209.7179 0001294  85.1197 173.5613 15.36684532  1307,6834.059,93.708,456.8080000000001,455.039,0.0
53146.0,STARLINK-4099,PAYLOAD,2022-08-27 14:00:01,15.35080552,0.0001102,53.2173,206.6011,81.6231,265.2161,-0.035756,-0.01127566,0.0,0 STARLINK-4099,1 53146U 22083Q   22239.58334491 -.01127566  00000-0 -35756-1 0  9996,2 53146  53.2173 206.6011 0001102  81.6231 265.2161 15.35080552  1304,6838.818,93.806,461.437,459.93,0.0
53146.0,STARLINK-4099,PAYLOAD,2022-08-27 20:00:01,15.34475365,0.0001219,53.2172,205.4328,84.7715,204.134,-0.036286,-0.01122749,0.0,0 STARLINK-4099,1 53146U 22083Q   22239.83334491 -.01122749  00000-0 -36286-1 0  9991,2 53146  53.2172 205.4328 0001219  84.7715 204.1340 15.34475365  7105,6840.616,93.843,463.315,461.647,0.0
53146.0,STARLINK-4099,PAYLOAD,2022-08-27 22:00:00,15.34274631,0.0001154,53.2174,205.0442,77.2336,312.2390000000001,-0.036479,-0.01121585,0.0,0 STARLINK-4099,1 53146U 22083Q   22239.91667824 -.01121585  00000-0 -36479-1 0  9990,2 53146  53.2174 205.0442 0001154  77.2336 312.2390 15.34274631  1309,6841.2130000000025,93.855,463.867,462.288,0.0
53146.0,STARLINK-4099,PAYLOAD,2022-08-28 12:00:00,15.32872542,0.0001193,53.2171,202.3266,65.0653,306.6908,-0.038348,-0.01127069,0.0,0 STARLINK-4099,1 53146U 22083Q   22240.50001157 -.01127069  00000-0 -38348-1 0  9998,2 53146  53.2171 202.3266 0001193  65.0653 306.6908 15.32872542  7200,6845.384,93.941,468.066,466.432,0.0
53146.0,STARLINK-4099,PAYLOAD,2022-08-28 14:00:01,15.32670601,0.0001317,53.2174,201.9385,65.5321,46.3098,-0.038507,-0.0112477,0.0,0 STARLINK-4099,1 53146U 22083Q   22240.58334491 -.01124770  00000-0 -38507-1 0  9999,2 53146  53.2174 201.9385 0001317  65.5321  46.3098 15.32670601  1300,6845.985,93.954,468.752,466.949,0.0
